Clinic Name,Province,Location,Owner,LinkedIn,Website,Phone,Email,Latitude,Longitude
Vetland Veterinary Clinic,Ajman,Al Ajman,Dr. Tarek Shoeb,,https://vetlandclinic.com/,971 0502214462,info@vetlandclinic.com,25.38036617,55.60309403
Canary Pet Hub,Ajman,Al tihead Road - Al Zorah - Ajman - United Arab Emirates,Ahmed Al Mahmood,https://www.linkedin.com/ihmedaalmahmoodb6537bb1/,http://www.canarypetgroup.com/,971 0506942426,rak@canarypetgroup.com,25.4230002,55.49353562
Al Mustakbal Veterinary Clinic,Ajman,Al Rawda 3,,,http://www.amvclinic.com/,971 56 868 8600,,25.38733643,55.50554802
Wellness Vet Clinic,Ajman,Al Rawda 1,,,https://wellnessvetclinic.ae/,971 56 665 7584,info@wellnessvetclinic.ae,25.38467109,55.52228071
Soul Veterinary Clinic,Ajman,Jerf Industrial,Mark Jance,,http://www.soulvet.ae/,971 54 321 1559,,25.42137492,55.53559041
Zoko Veterinary Clinic,Ajman,Jerf Industrial,,,https://zokovet.com/,971 54 247 9797,,25.42205561,55.53591841
Bayt Veterinary Clinic,Ajman,Mufaid 2,,,http://baytvet.com/,971 50 764 0145,,25.36639842,55.49246658
The City Vet Clinic,Dubai,Al Barsha,,,http://thecityvetclinic.com/,8003990,alwasl@thecityvetclinic.com,25.09881843,55.20512089
Pet Connection,Dubai,Al Barsha,,,https://petconnection.ae/,971 4 447 5307,info@petconnection.com,25.11541513,55.20561989
Al Barsha Veterinary Clinic,Dubai,Al Barsha,Dr. Abdulrahman AlMansoori,,https://www.abvc.ae/,971 4 340 8601,Info@abvc.ae,25.11347939,55.19444112
Perfect Dose Veterinary Clinic,Dubai,Al Barsha,,,https://perfectdoseveterinaryclinic.com/,971 4 591 3433,info@perfectdoseveterinaryclinic.com,25.08845441,55.19367745
Mike's Veterinary Clinic,Dubai,Al Barsha,,,https://www.mikesvet.com/,971 4 283 7744,reception@mikesvet.com,25.08924657,55.19125862
Vets in the City Veterinary Clinic,Dubai,Al Barsha,Mariam Ahmad,,https://vetsinthecity.me/,971 4 351 8522,info@vetsinthecity.me,25.0840695,55.2007948
Lucky Veterinary Clinic,Dubai,Al Barsha,Yalda Motavali,,http://www.lvc.ae/,971 4 395 1530,info@lvc.ae,25.1130029,55.1915587
Vetcare Veterinary Medical Centre,Dubai,Al Barsha,,,https://www.vetcaredubai.com/,971 4 430 9797,,25.0575504,55.2425246
Pet Connection Veterinary Clinic,Dubai,Al Barsha,Walter Tarello,,http://www.petconnection.ae,971 04 447 5307,info@petconnection.ae,25.1153957,55.2056038
VetDUB Veterinary Clinic,Dubai,Al Barsha South,Dr. Khattab Salam,,https://www.vetdub.ae/,971 4 834 1168,reception@vetdub.ae,25.0695535,55.2421937
Pet First Veterinary Clinic,Dubai,Al Barsha 3,Amer Hejazi,,https://petfirst.ae/,971 4 388 0182,info@petfirst.ae,25.08152036,55.2051535
Vets Fur Pets ,Dubai,Al Barsha 3,Dr. Teena Joseph Head,,https://vetsfurpetsclinic.com/,971 52 490 2369,info@vetsfurpetsclinic.com,25.08186987,55.20465483
Vets Fur Pets ,Dubai,Al Barari,Dr. Teena Joseph Head,,https://vetsfurpetsclinic.com/,971 52 490 2369,info@vetsfurpetsclinic.com,25.09909765,55.31749801
Kings Vet Clinic,Dubai,Al Barari,,,http://kingsvet.ae/,971 4 323 8707,info@kingsvet.ae,25.0901265,55.3155797
Hub Vet Clinic,Dubai,Al Arjan,Ahmed Sabry,,https://hubclinics.com/,971 5 22405605,info@hubclinics.com,25.0618111,55.2379232
Al Hayat Veterinary Clinic,Dubai,Al Awir,Dr. AbdulMuttaleb Kalaji,,https://www.alhayatvetclinic.com/,971 58 593 1952,akalaji@outlook.com,25.1791719,55.5540943
Pet Friends Group,Dubai,Al Furjan,,,http://www.petfriendsgroup.net/,971 55 389 7593,,25.04707921,55.20618354
PetsFirst Veterinary Clinic and Grooming,Dubai,Al Furjan,Wim Torfs,,https://petsfirst.ae/,971 4 575 9646,info@petsfirst.com,25.02509872,55.13923716
Paw Sisters Veterinary Clinic,Dubai,Al Garhoud,,,https://pawsisters.ae/,971 4 259 8688,office@pawsisters.ae,25.2498755,55.3426366
Pet Friends Group,Dubai,Al Jaddaf,,,http://www.petfriendsgroup.net/,971 55 389 7593,,25.22393295,55.3298281
Top Vet Clinic,Dubai,Al Jaddaf,Dr. Yousef Al Ramahi,,https://topvetclinic.com/,971 56 544 4677,info@topvetclinic.com,25.2215059,55.3242965
Modern Veterinary Clinic,Dubai,Al Khawaneej,Mansoor AlShiha,https://www.linkedin.com/in/mansooralshiha/?original_referer=https%3A%2F%2Fwww%2Egoogle%2Ecom%2F&originalSubdomain=ae,https://modernvet.com/,800 82,"mvc@modernvet.com, jlt@modernvet.com, vetlivery@modernvet.com",25.23469023,55.55793025
Al Falah Veterinary Clinic,Dubai,Al Mina,Okba Charef,,https://alfalahveterinary.com/,971 4 244 2110,mail@alfalahveterinary.com,25.2463474,55.2754707
Jungle Veterinary Clinic ,Dubai,Al Mizhar 1,Saad Eid,,http://www.junglevets.com/,971 563838368,junglevetsclinic@gmail.com,25.2350001,55.4311343
National Veterinary Clinic,Dubai,Al Mushrif Area,,,http://www.nationalvet.com/,971 02 446 1628,vetyhosp@emirates.net.ae,24.4499521,54.3867346
Companion Veterinary Clinic,Dubai,Al Quoz,,,http://www.companionvetdubai.com/,971 56 218 2223,frontdesk@companionvetdubai.com,25.1300046,55.2325182
Pet Station Group,Dubai,Al Quoz,Hussein Ghannaj,https://www.linkedin.com/in/husseinghannaj%D8%AD%D8%B3%D9%8A%D9%86%D8%B9%D9%86%D8%A7%D8%ACveterinarydoctor2330a773/,https://www.petstationgroup.com/,971 4 321 4430,info@petstationgroup.com,25.1251868,55.2171499
Pet Station Group,Dubai,Al Quoz Location 2,Hussein Ghannaj,https://www.linkedin.com/in/husseinghannaj%D8%AD%D8%B3%D9%8A%D9%86%D8%B9%D9%86%D8%A7%D8%ACveterinarydoctor2330a773/,https://www.petstationgroup.com/,971 4 321 4430,info@petstationgroup.com,25.13983693,55.22879596
Dogventure Vet Clinic,Dubai,Al Quoz,,,https://dogventurehq.com/clinic/,971 4 702 6905,,25.1182442,55.2187884
Deira Veterinary Clinic,Dubai,Al Qusais,,,http://www.dubaivetclinic.ae/,971 4 258 1881,reception@dubaivetclinic.ae,25.2876566,55.4045988
Mercy Veterinary Clinic,Dubai,Al Safa,,,https://vetmercy.com/,971 4 332 6600,info@vetmercy.com,25.1788026,55.2417171
Al Falah Veterinary Clinic,Dubai,SZR,Okba Charef,,https://alfalahveterinary.com/,971 4 244 2110,mail@alfalahveterinary.com,25.1959159,55.2621848
Vets for Pets Veterinary Clinic,Dubai,SZR,Eva Wolf,,https://vetsforpets.ae/,971 50 767 6326,info@vetsforpets.ae,25.0971674,55.1685476
The City Vet Clinic,Dubai,Al Wasl,,,http://thecityvetclinic.com/,8003990,alwasl@thecityvetclinic.com,25.1550018,55.2165299
Petzone Veterinary Clinic,Dubai,Al Wasl,Leena Dalal,,https://www.petzonevet.com/,971 4 346 7870,info@petzonevet.com,25.1970552,55.2633597
Doctor Well Veterinary Clinic,Dubai,Al Wasl Rd,David Feldmar,,http://www.dwv.ae,971 43219833,admin@drwell.ae,25.1524757,55.2138392
The City Vet Clinic,Dubai,Al Warqa,,,http://thecityvetclinic.com/,8003990,alwasl@thecityvetclinic.com,25.206415,55.424751
Rukn Al Zajel Veterinary Medicines,Dubai,Unnamed Road، - Dubai - United Arab Emirates,,,http://ruknalzajel.com/,971 4 267 9383,,25.15880797,55.4588583
Territory A Pet Clinic,Dubai,Azizi Riviera,Ahmad Barakat,,https://territoryuae.com/,971 56 110 4747,territoryuae@gmail.com,25.1723833,55.3061674
Prime Paws Veterinary Clinic ,Dubai,Business Bay,,,https://www.primepaws.pet/,971 4 360 4477,info@primepaws.pet,25.1818912,55.2796232
PetsFirst Veterinary Clinic and Grooming,Dubai,City Walk,Wim Torfs,,https://petsfirst.ae/,971 4 575 9646,info@petsfirst.com,25.20321843,55.26100282
Pet Station Group,Dubai,Damac Hills,Hussein Ghannaj,https://www.linkedin.com/in/husseinghannaj%D8%AD%D8%B3%D9%8A%D9%86%D8%B9%D9%86%D8%A7%D8%ACveterinarydoctor2330a773/,https://www.petstationgroup.com/,971 4 321 4430,info@petstationgroup.com,25.0292369,55.2527796
Blue Oasis Veterinary Clinic,Dubai,Damac Hills 2,Wolf Ofner,,http://www.blueoasispetcare.com/,971 4 884 8580,frontdesk@bovc.ae,24.9982333,55.3836675
Provet Veterinary Clinic,Dubai,Deira,,,http://www.provetdubai.com/,971 50 917 2377,info@provetdubai.com,25.2774748,55.3501066
Blue Oasis Veterinary Clinic,Dubai,Next to Premier Inn Hotel Dubai Investments Park - Green Community Village,Wolf Ofner,,http://www.blueoasispetcare.com/,971 4 884 8580,frontdesk@bovc.ae,25.00765945,55.15634401
Noble Veterinary Clinic,Dubai,DIP,,,https://www.noblevetclinic.com/,971 4 885 9800,contact@noblevetclinic.com,25.01161558,55.15939435
SaBB Veterinary Clinic ,Dubai,DIP,Dr Dorian Gaeta,,http://www.smallanimalbloodbank.com/,971 4 591 1007,info@smallanimalbloodbank.com,24.9804259,55.1996874
Dreamers Veterinary Clinic,Dubai,DIP,,,https://www.dreamersvet.ae/,971 4 824 1454,,25.0036401,55.1545452
Doctor Dolittle Vet Clinic,Dubai,DIP,,,https://doctordolittle.net/,971 58 195 0500,doctor.dolittle2021@outlook.com,24.9979444,55.1709883
Modern Veterinary Clinic,Dubai,Downtown,Mansoor AlShiha,https://www.linkedin.com/in/mansooralshiha/?original_referer=https%3A%2F%2Fwww%2Egoogle%2Ecom%2F&originalSubdomain=ae,https://modernvet.com/,800 82,"mvc@modernvet.com, jlt@modernvet.com, vetlivery@modernvet.com",25.1877998,55.2788046
Karas Veterinary Clinic ,Dubai,Downtown,Michael Gerges,,https://www.karasvet.com/,971 4 575 6444,care@karasvet.com,25.19284639,55.26624117
Pawsitive Veterinary Clinic,Dubai,DSO,Muhammad Iftikhar Raza,,https://pawsitive.ae/,971 50 321 3969,info@pawsitive.ae,25.12246604,55.39840236
Pet Point Veterinary Clinic,Dubai,DSO,Dr. Khaled Sheta,,http://www.petpoint.ae/,971 4 236 5506,info@petpoint.ae,25.1239234,55.3726239
Pets Health Veterinary Clinic - The City Vet Clinic,Dubai,DSO,Irene Vieira Neves,,http://www.petshealth.ae/,971 4 261 5421,info@petshealth.ae,25.10983622,55.37803241
Pet Joy Veterinary Clinic,Dubai,DSO,,,http://petjoyvet.com/,971 50 974 2437,info@petjoyvet.com,25.11169521,55.38469636
The Hills Veterinary Clinic,Dubai,Dubai Hills Estate,,,http://thehillsvet.com/,971 4 330 8808,info@thehillsvet.ae,25.1108762,55.2446368
Vet in Town Veterinary Clinic,Dubai,Dubai Production City,Muhammad Rizwan Alahi,,https://vetintownclinic.com/,971 4 410 7960,info@vetintownclinic.com,25.0288611,55.1797956
CardioVet Veterinary Clinic,Dubai,Dubai Production City,Maha Osman,,http://www.cardiovet.com,971 582583897,info@cardiovet.com,25.0370168,55.1836104
Vet Plus ,Dubai,Dubai Marina,Elza Lamas,,http://www.vetpluscenter.com/,971 4 220 4553,info@vetpluscenter.com,25.06847691,55.13031001
Super Vet Pet Clinic ,Dubai,Dubai Miracle Garden,,,http://www.supervetdubai.com/,971 4 451 6872,supervetdubai@gmail.com,25.06149035,55.23325531
Vida Vet,Dubai,Emirates Hills,,,http://www.vidavet.com/,971 50 710 7095,,25.0778103,55.1595772
Professional Veterinary Clinic,Dubai,Festival City,Dr. Shine,,http://www.profvetdubai.com/,971 42980330,info@profvetsdubai.com,25.2240352,55.3602218
Pet Palace Veterinary Clinic,Dubai,International City,,,https://petpalacedubai.com/,971 55 348 5152,info@petpalacedubai.com,25.1610365,55.4016255
Harmony Vet Clinic,Dubai,International City,,,http://www.harmonyvetdubai.com/,971 56 687 8500,Info@harmonyvetdubai.com,25.15955287,55.39917553
Pawbulance Veterinary Clinic,Dubai,JBR,,,https://pawbulance.ae/,971 54 737 1109,info@pawbulance.ae,25.0744711,55.1318469
Modern Veterinary Clinic,Dubai,JLT,Mansoor AlShiha,https://www.linkedin.com/in/mansooralshiha/?original_referer=https%3A%2F%2Fwww%2Egoogle%2Ecom%2F&originalSubdomain=ae,https://modernvet.com/,800 82,"mvc@modernvet.com, jlt@modernvet.com, vetlivery@modernvet.com",25.0690597,55.138396
Karas Veterinary Clinic ,Dubai,JLT,Michael Gerges,,https://www.karasvet.com/,971 4 575 6444,care@karasvet.com,25.08012842,55.15335751
Noble Veterinary Clinic,Dubai,JLT,,,https://www.noblevetclinic.com/,971 4 885 9800,contact@noblevetclinic.com,25.06331914,55.13753249
Amore Veterinary Clinic,Dubai,Jumeirah Golf Estates,Fatema Alabbar,,http://www.amorevet.ae/,971 0588108341,info@amorevet.ae,25.0286307,55.2071053
Pure Life Veterinary Clinic,Dubai,Jumeirah 3,Dr. Svetlana,https://www.linkedin.com/in/souheilab3a04316a/,https://www.purelifevet.com/,971 4 272 3442,contact@purelifevet.com,25.1690698,55.215085
British Veterinary Hospital,Dubai,Jumeirah 3,Dr. Sara Elliott,,http://www.britishvethospital.com/,971 4 314 2444,reception@britishvethospital.com,25.1754901,55.2313802
Vets & Pets Dubai,Dubai,Jumeirah 3,Vito Castellana,,http://www.vetsandpetsdubai.com/,971 058 599 8387,,25.17473583,55.23119339
Animal Specialist Clinic,Dubai,Jumeirah 1,Dr. Mohammed Al Khaja,,https://animalspecialist.com/,971 4 343 5540,info@animalspecialist.com,25.2142163,55.2592839
Pets Haven Veterinary Clinic,Dubai,Jumeirah 1,Dr. Basel Badra,,https://www.petshaven.ae/,971 58 692 7482,info@petshaven.ae,25.2358984,55.2712244
Alpha Vet Clinic Dubai,Dubai,Jumeirah 1,,,http://www.alphavetdubai.com/,971 56 689 1655,hello@alphavetdubai.com,25.23917303,55.27153092
Happy Paws Veterinary Clinic ,Dubai,Jumeirah 1,,,https://happypawsveterinary.ae/,971 50 898 4782,,25.2414161,55.2719957
European Veterinary Centre,Dubai,Jumeirah,Dr. Mafalda Sardinha,,http://www.europeanvet.ae/,971 4 380 4415,Hello@europeanvet.ae,25.1483124,55.2104884
Energetic Panacea Veterinary Clinic,Dubai,Jumeirah,,,http://www.panaceavets.com,971 4 344 7812,info@panaceavets.com,25.2022481,55.249948
Kare Veterinary Clinic,Dubai,Jumeirah Village Triangle,Muhammad Husnain,,http://www.kareveterinaryclinic.com,971 04 3757001,info@kareveterinaryclinic.com,25.0367849,55.1782604
Modern Veterinary Clinic,Dubai,JVC,Mansoor AlShiha,https://www.linkedin.com/in/mansooralshiha/?original_referer=https%3A%2F%2Fwww%2Egoogle%2Ecom%2F&originalSubdomain=ae,https://modernvet.com/,800 82,"mvc@modernvet.com, jlt@modernvet.com, vetlivery@modernvet.com",25.0545985,55.2119438
Pet Friends Group,Dubai,JVC,,,http://www.petfriendsgroup.net/,971 55 389 7593,,25.047078,55.2061926
Territory A Pet Clinic,Dubai,JVC,Ahmad Barakat,,https://territoryuae.com/,971 56 110 4747,territoryuae@gmail.com,25.0475792,55.2106621
Paws and Claws Veterinary Clinic,Dubai,378 Sheikh Zayed Rd - Al Safa - Al Safa 1 - Dubai - United Arab Emirates,,,https://www.pawsandclawsclinics.com/,971 50 340 8149,,25.05334935,55.21998103
Paws and Claws Veterinary Clinic,Abu Dhabi,Central Market - Shop F45 - behind Bawadi Mall - Abu Dhabi - United Arab Emirates,,,https://www.pawsandclawsclinics.com/,971521511465,,24.16651185,55.80971481
Pets Society Veterinary Clinic,Dubai,JVC,Dr. Jess Paterson,,http://www.petssociety.ae/,971 52 107 2000,info@petssociety.ae,25.0687692,55.2074089
JVC Express Veterinary Clinic,Dubai,JVC,,,https://jvcevc.com/,971 58 580 5613,,25.0474835,55.2047606
The City Vet Clinic,Dubai,JVT,,,http://thecityvetclinic.com/,8003990,alwasl@thecityvetclinic.com,25.0473827,55.195081
Anubis Veterinary Clinic,Dubai,Majan,,,http://anubisvetclinic.com/,971 56 953 8646,,25.0926966,55.3134057
CliniPets,Dubai,MBL Residence,,,http://www.clinipetsvet.com/,97148742666,info@clinipetsvet.com,25.0665614,55.1399977
The City Vet Clinic,Dubai,Meydan,,,http://thecityvetclinic.com/,8003990,alwasl@thecityvetclinic.com,25.15424944,55.29081914
The City Vet Clinic,Dubai,Mirdiff,,,http://thecityvetclinic.com/,8003990,alwasl@thecityvetclinic.com,25.22178869,55.43456112
Dubai Kennels and Cattery,Dubai,Motor City,Todd Carson,,https://www.dkc.ae/,971 4 211 4800,vet@dkc.ae,25.05252211,55.23128064
Pawsitive Veterinary Clinic,Dubai,Motor City,Muhammad Iftikhar Raza,,https://pawsitive.ae/,971 50 321 3969,info@pawsitive.ae,25.04517084,55.22731736
Pet Wellness Veterinary Clinic,Dubai,Nadd Al Sheba,Don Hartfiel,,https://pwvclinic.com/,971 56 149 7891,info@pwvclinic.com,25.1630176,55.3003693
Nad Al Shiba Veterinary Clinic,Dubai,Nadd Al Sheba,Dr. Farai,,http://www.nadalshibavet.com/,971 56 276 0434,info@nadalshibavet.com,25.1540925,55.2899189
The Pet Vet,Dubai,Nadd Al Hamar,Dradham Mrcvs,,https://thepetvet.ae/,971 58 583 2899,hello@thepetvet.ae,25.19261527,55.39538605
Modern Veterinary Clinic,Dubai,Palm Jumeirah,Mansoor AlShiha,https://www.linkedin.com/in/mansooralshiha/?original_referer=https%3A%2F%2Fwww%2Egoogle%2Ecom%2F&originalSubdomain=ae,https://modernvet.com/,800 82,"mvc@modernvet.com, jlt@modernvet.com, vetlivery@modernvet.com",25.1070933,55.147089
CardioVet Veterinary Clinic,Dubai,Production City,,,https://www.cardiovetveterinaryclinic.com/,971 4 447 0450,info@cardiovetclinic.com,25.0370168,55.1836104
Zabeel Veterinary Hospital,Dubai,Sheikh Zayed Rd,Dr. Stanislav Vyrva,,http://www.zabeelvet.com/,971 4 334 0011,info@zabeelvet.ae,25.2106167,55.2881539
Pet Pulse,Dubai,Silicon Oasis,,,https://petpulsedubai.com/,971 54 444 0283,info@petpulsedubai.com,25.1218476,55.3732651
Petology Vet Clinic,Dubai,Sobha Hartland,Ashim,,http://www.petology.ae/,971 56 333 6675,customer@petology.ae,25.17859616,55.30877636
Modern Veterinary Clinic,Dubai,Umm Suqeim,Mansoor AlShiha,https://www.linkedin.com/in/mansooralshiha/?original_referer=https%3A%2F%2Fwww%2Egoogle%2Ecom%2F&originalSubdomain=ae,https://modernvet.com/,800 82,"mvc@modernvet.com, jlt@modernvet.com, vetlivery@modernvet.com",25.1612779,55.2212841
Umm Suqeim Veterinary Centre,Dubai,Umm Suqeim,Dr. Malcolm Rose,,https://www.usvetcentre.com/,971 4 321 0799,receptionusvc@gmail.com,25.1483124,55.2104884
Dr. Well Veterinary Clinic,Dubai,Umm Suqeim,,,http://www.drwell.ae/,971 4 321 9833,admin@drwell.ae,25.1524757,55.2138392
Vienna Veterinary Clinic,Dubai,Umm Suqeim,Michaela Gradinger,,http://www.viennavet.com/,971 4 330 8555,info@viennavet.com,25.1439072,55.1994581
Intervet Veterinary Clinic ,Dubai,Umm Suqeim,Dr. Sergio Da Silva founder,,http://intervetuae.ae/,971 4 591 9997,intervetclinic@gmail.com,25.1420941,55.2056752
Advanced Pet Care Clinic,Dubai,Umm Suqeim 2,Dr. Furkan Morgulle,,http://www.apcc.ae/,971 4 321 2535,info@apcc.ae,25.14564145,55.20783014
The Veterinary Hospital,Dubai,Umm Al Sheif,Dr William Collins,,https://vethosp.com/,971 4 338 7726,contact@tvh.ae,25.13932642,55.20344116
Dubai Kennels and Cattery,Dubai,Umm Ramool,Todd Carson,,https://www.dkc.ae/,971 4 211 4800,vet@dkc.ae,25.2208425,55.3733993
2Feet4Paws & Exotics Veterinary Clinic,Dubai,Wadi Al Safa,,,http://2feet4paws.ae/,971 4 552 0213,info@2feet4paws.ae,25.0911634,55.3842931
Canadian Veterinary Clinic,Dubai,Dubai,,,https://canadianvc.com/,971 2 677 7631,canadianvet@live.com,25.1427114,55.2069245
Dr. Samir Vet Clinic,Dubai,Dubai,,,,050 4599690,,25.16905766,55.40410877
Pets'n Us Veterinary Clinic,Fujairah,Villa #73 King Faisal Road Al Faseel,,,,971502110037,,25.13615948,56.35259364
Dajlah Veterinary Centre,Fujairah,King Faisal St - Al Faseel - Fujairah,,,,09 2776602,,25.13761068,56.3524755
Pet Oasis,Ras Al Khaimah,"near Al hamra mall, opposite Majan Printing - Ras al Khaimah - United Arab Emirates",Dr. Elizabeth Thomas,https://www.linkedin.com/in/drelizabeththomas719924172/,https://petsoasisuae.com/,97167662397,info@petsoasisuae.com,25.69714806,55.80159785
Canary Pet Hub,Ras Al Khaimah,Al Ittihad Rd - Sheikh Khalifa City - Ras Al Khaimah - United Arab Emirates,Ahmed Al Mahmood,https://www.linkedin.com/ihmedaalmahmoodb6537bb1/,http://www.canarypetgroup.com/,971 0506942426,rak@canarypetgroup.com,25.73163869,55.88461066
Al Fanar Veterinary,Ras Al Khaimah,E18 - Al Fahlain - Ras Al-Khaimah - United Arab Emirates,,,,971552459696,,25.68558277,55.96957259
Al Safwa Veterinary,Ras Al Khaimah,V2JR+5J7 - E11 - Dhaya - Ras Al Khaimah - United Arab Emirates,,,,,,25.88099017,56.04084905
Al Noor Veterinary Clinic ,Ras Al Khaimah,Dhaya - Ras Al Khaimah - United Arab Emirates,,,,971505303403,https://www.instagram.com/al_noor_veterinary/,25.87726196,56.03583049
Al Ramooz Veterinary,Ras Al Khaimah,MWGF+CG4 Al Manama - Rd - Al Sewaan - Ras Al Khaimah - United Arab Emirates,,,,,,25.6779098,55.92487057
Dr Wael Eldomany Veterinary Clinic,Ras Al Khaimah,Al seeof - Al Nakheel - Ras Al Khaimah - United Arab Emirates,,,,971502485073,,25.80235399,55.97722937
Canadian Veterinary Clinic,Sharjah,Al Marija St - Al Mareija - Hay Al Gharb - Sharjah - United Arab Emirates,,,https://canadianvc.com/,971 2 677 7631,canadianvet@live.com,25.35462805,55.3828034
Rukn Al Zajel Veterinary Medicines ( Al Mumtaz) ,Sharjah,Birds and animal market - Al Jubail - Hay Al Qasimiah - Sharjah - United Arab Emirates,,,http://ruknalzajel.com/,971 4 267 9383,,25.35491116,55.38176074
Canary Vet Clinic,Sharjah,Al Jubail,Ahmed Al Mahmood,https://www.linkedin.com/ihmedaalmahmoodb6537bb1/,http://www.canarypetgroup.com/,971 0506942426,rak@canarypetgroup.com,25.3546011,55.38227031
Europets Clinic,Sharjah,"Villa 341, Street No.105, Mirgab St, Al Qadsiya - Sharjah - United Arab Emirates",,,http://www.epc.vet/,971 50 860 6857,,25.37957815,55.41576016
Vet Plus Center,Sharjah,Muwaileh,Elza Lamas,,http://www.vetpluscenter.com/,971 4 220 4553,info@vetpluscenter.com,25.30593116,55.4595857
Canary Pet Hub (Moblie Grooming),Sharjah,Muweilah Commercial,Ahmed Al Mahmood,https://www.linkedin.com/ihmedaalmahmoodb6537bb1/,http://www.canarypetgroup.com/,971 0506942426,rak@canarypetgroup.com,25.3059602,55.45954597
Hub Vet Clinic,Sharjah,Mweilah,Ahmed Sabry,,https://hubclinics.com/,971 5 22405605,info@hubclinics.com,25.30955096,55.45952485
Cute Cat Veterinary Clinic,Sharjah,Mweilah,,,https://www.cutecatvet.com/,971 55 422 4856,,25.31959363,55.48095874
Zad Veterinary Clinic,Sharjah,Sharjah Animal Market,,,http://zadvets.com/,971 0507655365,,25.35446383,55.38199603
AL Rafeeq Veterinary Clinic,Sharjah,Muwaileh Commercial - Industrial Area - Sharjah - United Arab Emirates,,,https://alrafeeqvet.com/,971501214336,,25.30780757,55.45479163
Al Tahona Vet Clinic,Sharjah,28 Qais Bin Abi Sa’Asa’ah Street (Al Marijah),,,,,,25.353911,55.3830560 
Nad Al Shiba Veterinary Clinic,Dubai,Nad Al Shiba,Dr. Farai,,https://www.nadalshibavet.com/,,,25.15410085,55.28991375
Amity Veterinary Clinic,Dubai,Al Barsha,Dr. Sam Royal Veterinary College UK,,https://amityvet.com/,,,25.08948599,55.19078041
Vet Veterinary Clinic,Dubai,Al Barsha 1,,,https://vetveterinaryclinic.com/,"04 3337101, 04 3380261",barsha@vetveterinaryclinic.com,25.11362753,55.19473219
Vet Veterinary Clinic,Dubai,Town Square Nshama,,,https://vetveterinaryclinic.com/,971 56 401 3533,nshama@vetveterinaryclinic.com,25.00525126,55.29709504
Europets Veterinary Clinic,Sharjah,Sharjah,,,http://www.europetshospital.com/,,,25.3461498,55.4210633
House of Pets,Fujairah,49P2+2CQ - Al Faseel - Fujairah,,,,971585228141,,25.13548011,56.35157887
Roaya Veterinary Clinic ,Umm Al Quwain,"Al Andalus Building  King Faisal St  Al Raas  AL Ras 1, Umm Al Quwain City",,Roaya Veterinary Clinic  ‚àö√∏≈ì√Ñ‚âà‚àè‚àö¬ß‚àö√∏‚àö√º‚àö√∏‚àö√≤‚àö√∏¬¨¬© ‚àö√∏¬¨¬±‚àö√∏¬¨√ü‚âà‚àè‚àö¬ß‚àö√∏¬¨¬© ‚àö√∏‚àö√º‚âà‚àè‚àö√´‚àö√∏¬¨√Ü‚âà‚àè‚àö¬ß‚àö√∏‚Äö√†√´‚àö√∏¬¨¬±‚âà‚àè‚àö¬ß‚àö√∏¬¨¬© HealthFinder.ae might link to professional profiles if available,https://www.google.com/search?q=roayaveterinaryclinics.com,#ERROR!,Likely via website contact form,25.57436723,55.56642251
Salama Veterinary Clinic,Umm Al Quwain,"Al Salama 3, Al Salamah, Umm alQuwain Municipality, Umm alQuwain Emirate",,Limited public info,"No direct website found, listed on UAQ government portal",971 505604020,Limited public info,25.51148448,55.58839517
Salamat Veterinary Clinic,Umm Al Quwain,"Near As Salamah, Umm alQuwain",,Limited public info,https://www.petwithit.com/listing/salamatveterinaryclinic/,"Information often dated/generic online, direct verification needed",Limited public info,25.50125905,55.56985574
Shahad Veterinary Clinic,Ajman,"Al Rawda 3, Ajman",,,shahadvetclinic.com,971 6 545 0023<br>971 56 763 0606,info@shahadvetclinic.com,25.38736439,55.49906864
Al Nujoom Al Khamsa Veterinary,Sharjah,near Almadam Roundabout - Al Madam - Sharjah - United Arab Emirates,,,,971 6 749 9991,,24.91655022,55.77641011
Al Hayat Veterinary Clinic,Ajman,"Sheikh Zayed Street, Al Rawda 2, Ajman",,,Local Search Profile,,,25.39754218,55.51651696
Al Rahmah Veterinary Clinic,Ajman,"Al Jurf 2 district, Ajman",,,,,,25.40146428,55.50205698
City Pet Veterinary Clinic,Ajman,"Al Rawda 3 district, Ajman",,,,,,25.39650232,55.49750969
Happy Tails Veterinary Clinic,Ajman,"Al Jurf 2 district, Ajman",,,,,,25.40141392,55.48218788
Al Ajwa Veterinary Clinic,Ajman,"Yasmeen area, Ajman",,,,,,25.37655499,55.58924908
Al Mujtarrak Veterinary Center,Ajman,"Yasmeen area, Ajman",,,,,,25.37650278,55.58981179
Ahmed Emara Veterinary Clinic,Ajman,"Yasmeen area, Ajman",,,,,,25.37490722,55.5982015
Al Aadyat Veterinary Clinic,Ajman,"Near Just Kabab Restaurant, Ajman",,,,971 55 735 4466,,25.37687509,55.58785205
Vets24 Veterinary Clinic,Fujairah,Al Basrah St - Al Faseel - Fujairah,,https://ae.linkedin.com/company/vets24,https://vets24.ae/<br>https://www.instagram.com/vets24_fuj/<br>https://www.facebook.com/vets24.fuj/,971 58 889 7500<br>971 50 487 6041,fujairah@vets24.ae<br>info@vets24.ae,25.14463438,56.35452827
Pets 'n Us Veterinary Clinic,Fujairah,"Villa 73, King Faisal Road, Al Faseel, Fujairah<br>P.O. Box 3220",,https://www.linkedin.com/company/petsnusvetclinic/,https://www.instagram.com/petsnusvetclinic_fujairah/,971 50 211 0037<br>971 50 897 6665,petsnusvetclinicfujairah@gmail.com,25.1361618,56.35259584
Vet Care Veterinary Clinic,Fujairah,"Villa D1, Al Nakheel Street, Al Faseel, Fujairah",,https://www.linkedin.com/company/vetcareveterinaryclinic/,https://www.facebook.com/p/VetCareClinic100064010474318/,971 50 995 9248,,25.13525062,56.35145207
Al Mayya Veterinary Center,Fujairah,586W+R8F - Unnamed Road - سكمكم - Fujairah - United Arab Emirates,,,https://www.atninfo.com/uae/fujairah/veterinaryclinics1575,971 9 223 5955,,25.16209327,56.3458218
Cute Paws Veterinary Clinic,Fujairah,482W+FM3 Sur Kalba Sharjah - behind Fujairah Airport - Hay Al Soar - Fujairah,,,,971 585678092,,25.10195849,56.34642102
Marbah Veterinary Clinic,Fujairah,79G6+2Q5 - Mirbih - Fujairah,,,https://www.atninfo.com/uae/fujairah/veterinaryclinics1575,971 9 238 0737,,25.27498337,56.36197898
Tristan Veterinary Clinic,Sharjah,Sour Kalba - 703 - Sharjah,,,https://www.instagram.com/tristanpetsuae/,971 55 632 3869,,25.10136335,56.32764828
Lovely Pet Veterinary Clinic,Fujairah,"35, Fujairah Street, Al Faseel, Fujairah",,,,,,25.13761044,56.35247469
Vets24 Veterinary Clinic,Ras Al Khaimah,Al Refaa - Sheikh Mohammed Bin Salem Rd - E11 - Ras Al Khaimah - United Arab Emirates,,https://ae.linkedin.com/company/vets24,https://vets24.ae/<br>https://www.facebook.com/Vets24AlRefaa/<br>https://www.instagram.com/vets24_/,971 7 243 6600<br>971 50 487 6041,info@vets24.ae,25.71435814,55.85014211
Village Vet ,Ras Al Khaimah,Paris St - Al Jazeera Al Hamra-Qaryat Al Hamra - Ras Al Khaimah - United Arab Emirates,Dr. Omer Kutubi,https://www.linkedin.com/in/dromerkutubi6234526b/<br>https://www.linkedin.com/in/villagevetuae9a5b27188/,https://www.villagesvet.com/<br>https://www.facebook.com/p/VillageVet100063618232072/,971 7 243 8080,villagevet@yahoo.com,25.68218385,55.7800578
Tag Veterinary Clinic,Ras Al Khaimah,272 Sheikh Mohammed bin Salem St - Dafan Al Khor - Ras Al Khaimah - United Arab Emirates,,https://www.linkedin.com/company/tagveterinaryclinic/,https://www.tagvet.ae/<br>https://www.facebook.com/tagvet.ae/,971 55 884 4233,info@tagvet.ae,25.78488553,55.94010652
Al Amal Veterinary Clinic,Ras Al Khaimah,"Al Felayya, Ras Al Khaimah",Dr. Sami,,https://alamalvetclinic.com/<br>https://www.instagram.com/alamalveterinary/,971 7 501 2973<br>971 56 107 1118,,25.73728737,55.9815949
Shaam Veterinary Clinic,Ras Al Khaimah,Shaam - Ras Al Khaimah - United Arab Emirates,,,,971 7 266 6164,,26.02370541,56.0838747
Corniche Veterinary Clinic,Ras Al Khaimah,6 4A St - Dafan Al Khor - Ras Al Khaimah - United Arab Emirates,,,https://www.facebook.com/p/CornicheVeterinaryClinic61559272010228/,971 50 998 2333<br>971 56 237 2333,,25.79262836,55.95130275
Dr. Jimmy Veterinary Clinic,Ras Al Khaimah,Al Dhait - Al Dhait South - Ras Al Khaimah - United Arab Emirates,Dr. Jimmy,,https://www.instagram.com/drjimmyvet/,,,25.74654733,55.90705689
Pet Care Clinic Veterinary,Ras Al Khaimah,47 Al Ghafat Rd - Al Riffa - Ras Al Khaimah - United Arab Emirates,,,https://www.instagram.com/pet_care.clinic/,,,25.71690644,55.85991524
Al Marae Veterinary Clinic,Ras Al Khaimah,PX5C+J4F - near kharan round about - Al Kharan - Ras Al Khaimah - United Arab Emirates,,,,971551196690,,25.71244178,55.98794203
Al Qaiser Veterinary Clinic,Ras Al Khaimah,"Al Digdaga, Al Fahlain, Ras al-Khaimah Municipality, Ras al-Khaimah Emirate",,,,,,25.671374,55.969925
Homely Petz,Ras Al Khaimah,"Al Dhait North, Sector 4, Ras Al Khaimah",,,,,,25.7502293,55.9322998
Gulf Veterinary Center,Dubai,"Dubai  Industrial Area, Distribution Center",,,https://www.gulfveterinarycentre.com/,971 3 763 3269,,25.25155492,55.3162227
Al Khail Al Aseel Vet Est.,Dubai,6G5X+PC3 - Al Khawaneej - Al Khawaneej 2 - Dubai - United Arab Emirates,,,https://www.yello.ae/company/211963/alkhailalaseelvetest,971 3 722 1242,,25.20946832,55.5488338
Noble Veterinary Clinics,Dubai, Jumeirah,Dr. Soheyl Simaei,,https://noblevetclinic.com/,971 4 885 9800,contact@noblevetclinic.com,25.17170422,55.22496043
2Feet4Paws Veterinary & Exotics Clinic,Dubai,Wadi Al Safa,,,https://2feet4paws.ae/,971 4 552 0213,info@2feet4paws.ae,25.09116868,55.38428946
Petflix Vet Clinic,Dubai,"Shop B04, Samari Retail, Ras Al Khor Industrial 3",,,,971 55 620 4085,,25.17762047,55.37625876
Petland Wellness Vet Clinic ,Dubai,"Office C09, Royal Class Building, DIP1, Dubai",,,https://www.petlandwellness.com/,971 56 710 0752,,24.99813633,55.17024263
Star Veterinary Clinic,Dubai,Dubai Sports City - Dubai - United Arab Emirates,,,https://www.starveterinaryclinicdubai.com/,,,25.03694198,55.22231936
Star Veterinary Clinic,Dubai,"ZOOM - block C, Beside - The Sustainable City - Dubai - United Arab Emirates",,,https://www.starveterinaryclinicdubai.com/?utm_source=GMB&utm_medium=organic,971 4 327 4921 ,,25.02852556,55.27491838
Sukar Vet Clinic,Ajman,Ajman,,,,,,25.37745802,55.59985954
Al Enaya Pet Care Center,Ajman,Ajman,,,,,,25.3990283,55.5023758
Alrayan Vet Clinic,Ajman,"Helio 2, Ajman",,,,522142152,,25.3805782,55.603332
The Vets Veterinary Clinic,Ajman,Ajman,,,,,,25.4188174,55.48800404
Al Amirat Veterinary Clinic for Pets Care,Ajman,"Jurf Gardens, Jurf Industrial 3",,,https://www.facebook.com/p/‚Äö√†√∂‚àö‚àè‚Äö√†√∂‚àö¬∫‚Äö√¢√†‚Äö√†√®‚Äö√†√∂‚àö¬¥‚Äö√†√∂‚àö‚àè¬¨¬®¬¨¬£‚Äö√¢√†‚Äö√†√®‚Äö√†√∂‚àö¬±‚Äö√¢√†‚Äö√†√®‚Äö√†√∂¬¨√ü‚Äö√†√∂‚àö‚àè¬¨¬®¬¨¬±‚Äö√†√∂‚àö‚àè‚Äö√†√∂‚àö¬∫‚Äö√†√∂‚àö‚àè‚Äö√Ñ√∂‚àö√´¬¨¬¢‚Äö√¢√†‚Äö√†√®‚Äö√†√∂‚àö¬¥‚Äö√¢√†‚Äö√†√®‚Äö√†√∂‚àö¬¥‚Äö√†√∂‚àö‚àè‚âà√¨‚àö√ë‚Äö√¢√†‚Äö√†√®‚Äö√†√∂‚àö‚à´‚Äö√†√∂‚àö‚àè‚Äö√†√∂‚àö¬∫‚Äö√¢√†‚Äö√†√®‚Äö√†√∂¬¨√ü‚Äö√†√∂‚àö‚àè¬¨¬®¬¨¬©‚Äö√†√∂‚àö‚àè¬¨¬®‚àö√ú‚Äö√†√∂‚àö‚àè‚Äö√†√∂‚àö¬∫‚Äö√¢√†‚Äö√†√®‚Äö√†√∂‚àö¬¥‚Äö√†√∂‚àö‚àè‚Äö√Ñ√∂‚àö¬¢‚Äö√Ñ‚Ä†‚Äö√¢√†‚Äö√†√®‚Äö√†√∂¬¨√ü‚Äö√¢√†‚Äö√†√®‚Äö√†√∂‚Äö√Ñ‚Ä†‚Äö√†√∂‚àö‚àè‚Äö√†√∂‚àö¬∫‚Äö√¢√†‚Äö√†√®‚Äö√†√∂‚àö‚à´‚Äö√†√∂‚àö‚àè‚Äö√†√∂‚àö¬∫‚Äö√†√∂‚àö‚àè‚Äö√Ñ√∂‚àö√´¬¨¬¢‚Äö√†√∂‚àö‚àè‚Äö√†√∂‚àö¬∫‚Äö√¢√†‚Äö√†√®‚Äö√†√∂‚àö¬¥‚Äö√†√∂‚àö‚àè¬¨¬®¬¨¬£‚Äö√¢√†‚Äö√†√®‚Äö√†√∂‚àö¬¥‚Äö√¢√†‚Äö√†√®‚Äö√†√∂¬¨√ü‚Äö√¢√†‚Äö√†√®‚Äö√†√∂‚àö√±‚Äö√†√∂‚àö‚àè¬¨¬®¬¨¬©AlAmiratPetsCare100071734958368/,,,25.42142341,55.53548738
Eco Vet Veterinary Clinic,Ajman,"Hamidiya 1 area, University street",,,,563889206,,25.40808179,55.51280753
Al Alamia Pet Clinic,Ajman,Ajman,,,https://www.facebook.com/profile.php?id=61554725229820,,,25.39891448,55.50213441
Pet Life Veterinary Clinic,Ajman,Al Yasmeen - Ajman - United Arab Emirates,,,https://www.instagram.com/clinicpetlife/?hl=en,553544177,petlifeclinic.vet@gmail.com,25.42839253,55.61689823
Pet Oasis Veterinary Clinic,Ajman,Ajman,,,,,,25.43158567,55.51948712
Al Ajwa Veterinarian Clinic,Ajman,Ajman,,,,,,25.37656399,55.58924824
Al Nukhba Veterinary Clinic,Fujairah,Fujairah,,,,,,25.28080189,56.36411165
Al Rahmah Veterinary Clinic,Ajman,Ajman,,,,,,25.40145956,55.50206091
Al Tarek Veterinary Clinic,Ajman,Ajman,,,,,,25.3763129,55.59100376
Al Zahia Veterinary Clinic,Ajman,CJ2C+G6G - Al Heliow - Ajman - United Arab Emirates,,,,,,25.40136074,55.6204638
Almahaba Veterinary Clinic,Ajman,Ajman,,,,,,25.44188474,55.52831175
Al Fersan Veterinary Clinic,Ajman,Ajman,,,,,,25.42220888,55.53585938
Almustakbal Veterinary Clinic,Ajman,Ajman,,,,,,25.38734379,55.50554614
Bayt Alhayawanat Alalifa Veterinary Clinic,Ajman,Ajman,,,,,,25.3663934,55.49248486
Express Veterinary Clinic,Ajman,Ajman,,,,,,25.42152157,55.53533176
Fluffy Veterinary Clinic,Ajman,Ajman,,,,,,25.39631496,55.5234053
The Cat Specialist Veterinary Clinic,Dubai,Dubai,,,,,,25.08880956,55.19148166
The Ark Animal Clinic,Dubai,Dubai Silicon Oasis,,,,,,25.10852276,55.37633379
Territory Pet Clinic,Dubai,Meydan,,,,,,25.17240831,55.30616169
Territory Pet Clinic,Dubai,JVC,,,,971 4 454 2247,,25.04758587,55.2106592
Shaklanvet,Dubai,Dubai,,,,971 4 454 5585,,25.24993071,55.34056719
Smart Vets Group,Dubai,Dubai,,http://www.linkedin.com/company/smartvetsgroup,http://www.smartvetsgroup.com,971 4 454 6777,,25.16502492,55.42232855
Red Carpet Clinic  ,Dubai,Dubai Silicon Oasis,,,,,,25.12081376,55.39623663
Safe Care Veterinary Clinic,Dubai,DMCC,,,,,,25.07972251,55.15262174
Royal Pets Clinic,Dubai,Al Garhoud,,,,971 4 285 0088,,25.23996426,55.34685796
Hurairah Veterinary Clinic,Dubai,Dubai,,,dm.gov.ae,,,25.36777752,55.49021312
Physio Evolution ,Dubai,"Dogwalk, Al Quoz",,,https://www.physio-evolution.com/,971 4 336 3009,,25.07751066,55.51432804
Whiskers and Wags Veterinary Clinic,Dubai,Dubai,,,,,,25.18488253,55.24202723
Trio Pet Care,Dubai,Dubai,,,,971 4 385 4554,,25.0332258,55.24690412
Gozl Veterinary UAE,Dubai,Dubai,,,,971 56 406 4606,,24.98551034,55.13845113
GAH Veterinary Medicine,Dubai,Al Khawaneej,,,,971 4 285 2655,,25.23520782,55.55212832
Dubai Equine Hospital,Dubai,2 Street # 22A - Za'abeel - Za'abeel 2 - Dubai - United Arab Emirates,,http://www.linkedin.com/company/dubaiequinehospital,http://www.deh.ae,971 4 324 4442,,25.20952234,55.29071391
Clinipets Vet Clinic,Dubai,DMCC,,,,,,25.0665729,55.13999557
Bright Future Pet Care,Dubai,Dubai,,,,971 4 454 5555,,25.2562202,55.3017248
Agrovet Alliance,Sharjah,Sharjah,,http://www.linkedin.com/company/agrovetalliance,http://www.agrovet.biz,971 4 276 5732,,25.3248653,55.50337782
Marina Vet Clinic,Dubai,Dubai Marina,,,,,,25.17557886,55.23137937
Al Nukhba Veterinary Clinic,Fujairah,Fujairah,,,,,,25.1244604,56.3355085
Wahat Aleef Veterinary Clinic,Fujairah,Al Ghurfah - Fujairah - United Arab Emirates,,,,,,25.59806707,56.28320799
Fluffy Cats Veterinary Clinic,Fujairah,Al Basrah St - Al Faseel - Fujairah,,,https://www.fluffyvetclinic.com/fujairah/ar/?channel_id=9698&channel_name=Google_Search-C1519GSCOAR&utm_medium=cpc&utm_campaign=Fluffy_Vet_Clinic_-_Fujairah&utm_source=google&IET=5883312&adset_name=171509852380&ad_name=%D8%B9%D9%8A%D8%A7%D8%AF%D8%A9%20%D8%A8%D9%8A%D8%B7%D8%B1%D9%8A%D8%A9%20%D9%81%D9%8A%20%D8%A7%D9%84%D9%81%D8%AC%D9%8A%D8%B1%D8%A9&campaign_name=&gad_source=1&gbraid=0AAAAA-hUz3NyZdJNDwPXbUls-da6bTHie&gclid=CjwKCAiArva5BhBiEiwA-oTnXYmk7LTaiiSZoirIHYRznpgCRHIGa873B30dwGoysbzBV02lmzA0mhoC3T0QAvD_BwE,,,25.14429801,56.34720958
Alasifah Veterinary Clinic,Ras Al Khaimah,Old Town - The Old Market - Ras Al Khaimah,,,,,,25.79421889,55.95112443
Al Maha Veterinary Clinic,Sharjah,Al Marija St - Al Jubail - Hay Al Qasimiah - Sharjah - United Arab Emirates,,,https://connect.ae/profiles/ras-al-khaimah/al-enaya-pharmacy/profile-id=er0170442,,,26.84559529,55.47531368
Al Enaya Veterinary Clinic,Ras Al Khaimah,"Kharran, Ras Al Khaimah",,,,,,25.7288107,55.96047898
Al Rayah Al Baydha Vet Clinic,Sharjah,اللؤلؤية - Sharjah,,,,,,25.39005967,56.34960979
Al Tareeq Vet Clinic,Sharjah,11 Qasis Bin Abi Sa'asa'ah St - Al Jubail - Hay Al Qasimiah - Sharjah,,,,,,25.3545486,55.3818706
Al Malakyah Vet Clinic,Sharjah,Al Marija St - Al Jubail - Hay Al Qasimiah - Sharjah,,,https://maps.yango.com/enae/org/110503342466/?ll=55.383365%2C25.353775&z=16,971 6 5300925,,25.35382564,55.38327545
Alef & Aneq Veterinary Clinic,Sharjah,Muwaileh Commercial - Industrial Area - Sharjah,,97165793848,,,,25.30762031,55.45525997
Aloropi Veterinary Center,Sharjah,34 Al Marija St - Al Jubail - Hay Al Qasimiah - Sharjah,,,aloropivetcenter.ae,971 65744622,,25.35479373,55.38188838
Alrayah Albaydaa Vet. Clinic,Sharjah,29X3+3HW - Al Mafrag - Sharjah,,,,,,25.04766593,56.3538639
Dar Al Shifa Vet.Clinic,Sharjah,Al Saaf 8 - Sharjah,,,https://clarifiedby.diligenciagroup.com/company/summary/8879797daralshifavet.clinic/,971 508040379,,25.03331654,56.35015202
Dar Al Waad Veterinary Clinic,Sharjah,Al Bardi 3 - Sharjah,,,,971 52 299 6117,,25.33827389,56.35300777
Diamond claw vet clinic,Sharjah,Shop 4 - Al Arouba St - Al Jubail - Hay Al Qasimiah - Sharjah,,,diamondclaw.ae,67151447,diamondclawvet@gmail.com,25.3520583,55.38351079
The Greenline Vet Clinic,Sharjah,Al Marija St - Al Jubail - Hay Al Qasimiah - Sharjah,,,greenlinevetclinic.wixsite.com,971 56 557 9529,info@greenlinevetclinic.com,25.35645108,55.37918725
Turkish Vet.clinic,Sharjah,Al Badee Suburb - Hay Hoshi - Sharjah,Ebla Group,,https://g.co/kgs/Z7bTSvS,,,25.2466471,55.54623185
Al Nawadir Veterinary Clinic,Sharjah,Al Marija St - Al Jubail - Hay Al Gharb - Sharjah,,,alnawadirpetcare.com,65509601,info@alnawadir.ae,25.35549094,55.3816184
Aloropi Vet Center,Sharjah,Industrial Areas - Sharjah,,,aloropivetcenter.ae,971 65744622,,25.24566971,55.54502541
Afdal Veterinary Clinic,Sharjah,219 Sheikh Zayed St - Samnan - Halwan - Sharjah,,,afdalvets.com,9.72E+10,info@AfdalVets.com,25.34133262,55.42774355
Al Umara Veterinary Clinic,Sharjah, Bu Tena - Sharjah,,,,,,25.37343717,55.39904871
Al Asifah Veterinary Clinic,Sharjah,Muwaileh Commercial - Industrial Area - Sharjah,,,,971547773200,https://alasifahvet.ae/,25.30922561,55.45879911
Animal Care Center ,Sharjah,"Kalba Road, Industrial Area / Nasiriyah area, Sharjah",,,,971 6 543 7137,,25.3461498,55.4210633
Perfect care veterinary clinic,Sharjah,Birds and animal market - shop 03 - Al Sajaa - Sharjah,,,,971555830366,,25.30550047,55.60132778
Al Watania Veterinary Clinic,Sharjah,Al Jubail - Hay Al Qasimiah - Sharjah,,,,1395,,25.35452924,55.38188055
Pet Land Veterinary Clinic ,Sharjah,"Al saud head office building, shop#16 Muwellah - Sharjah",,,,971502911365,,25.29606045,55.46099391
Thumbay Veterinary Clinic,Sharjah,1 Al Wahda St - behind City Max Hotel - Bu Shaghara - Hay Al Qasimiah - Sharjah,,,http://thumbayclinic.com/,97165523177,,25.33862709,55.3983499
Little Paws Vet Clinic,Sharjah,Villa 317 A - 105 Al Mirgab St - Al Qadisiyah - Alheera Suburb - Sharjah,,,,971 6 534 5999,,25.37809386,55.41326566
Wisdom Veterinary Clinic,Dubai,Behind Al Khayam Bakery - Al Qusais Industrial Area - Al Qusais Industrial Area 3 - Dubai,,,,,,25.29615078,55.39259252
Pet Oasis UAQ,Umm Al Quwain,Al Abraq - Al Nekheila - Emirate of Umm Al Quwain,,,,,,25.49699854,55.57552373
Al Maraie Veterinary Company ,Ras Al Khaimah,"Al Hail, Ras Al Khaimah, Ras al-Khaimah Municipality",,,,,,25.709025,55.970322
Shamel veterinary ,Ras Al Khaimah,"Shamal, Ras Al Khaimah, Ras al-Khaimah Municipality",,,,,,25.821153,56.024064
Julphar Veterinary Clinic,Ras Al Khaimah,"Al Digdaga, Ras Al Khaimah, Ras al-Khaimah Municipality",,,,"971 504863033
971 558558652",,25.678085,55.968238
Happy Pets Veterinary Clinic,Abu Dhabi,F 214 - 137th St Zayed Bin Sultan St - Al Noud - Abu Dhabi - United Arab Emirates,,,,,,24.16336504,55.81149953
Al Rawdah Veterinary Clinic,Abu Dhabi,Sheikh Khalifa Bin Zayed St - Central District - Hai Al Qasr - Abu Dhabi,,,https://rvc.ae/,,,24.22509992,55.75669567
ALEX Veterinary Clinic,Abu Dhabi,Al Nahyan - Zone 1 - Abu Dhabi,,,,971 52 523 0341,,24.46433394,54.38091674
Al Marai Al Khadraa Veterinary Clinic,Abu Dhabi,F88H+WHH - Sweihan - Shabiat Suweihan - Abu Dhabi,,,,,,24.46729809,55.32899397
Alpha Delta Veterinary Clinic,Abu Dhabi,"Abu Dhabi Central District, Diagnostic Laboratory",,,,,,24.40934862,54.51841061
Animal Planet Veterinary Clinic,Abu Dhabi,Al Ain Central Market - Shop No 151 - behind Bawadi Mall - Al Noud - Wadi Al Ain 1 - Abu Dhabi - United Arab Emirates,,,,,,24.162466,55.80957752
Al Erjouwan Veterinary Est.,Abu Dhabi,"Al Ain Hilton Road, Al Sanaiya Industrial Area, Building 8",,,https://erjouwanvets.com/,971 3 751 1373,,24.21775645,55.77768489
Al Falah Vet LLC SPC,Abu Dhabi,"Abu Dhabi - Central District, Hai Al Hisn",,,https://instagram.com/alfalah_vet_est,971 3 766 0515,,24.21618695,55.77670781
Al Falah Vet Est,Abu Dhabi,Al Ain central market - behind Bawadi mall - Abu Dhabi - United Arab Emirates,,,,,,24.1624161,55.8103277
Al Fateh Veterinary Est,Abu Dhabi,Bawadi Mall - Al Noud - Wadi Al Ain 1 - Abu Dhabi - United Arab Emirates,,,,,,24.16385448,55.81120985
Al Fedaa Plus Vet Medicine,Abu Dhabi,Al Sarouj - Hai Al Hisn - Abu Dhabi - United Arab Emirates,,,https://www.yello.ae/company/154276/alfedaavetmedicine,971 3 751 7517,,24.2224378,55.7841387
Al Fedaa Vet Medical Establishment,Abu Dhabi,7PV2+4CG - Eastern Region - Abu Dhabi,,,,03 7517517,,24.2988728,55.7016742
Al Khalidiya Vet Clinic,Abu Dhabi,"Abu Dhabi Delma Street, Al Khalidiya area",Pet Friends Group,,petfriendsgroups.com,9.72E+11,pfrindsvet@gmail.com,24.46530499,54.38384305
Al Khatim Veterinary Clinic,Abu Dhabi,"1, 2547 Lane, Dhaharat Al Tayeb, Abu Dhabi",,,,"24.193020, 54.876763",Veterinary clinics,24.1930014,54.87731431
Al Maydan Veterinary Clinic,Sharjah,7VJG+8VP - Al Dhaid - Sharjah - United Arab Emirates,,,,,,25.28109761,55.87740261
Al Raha Veterinary Clinic,Abu Dhabi,"Azzam One residence, 1007, Channel street, RBW5, Al Rahah, Abu Dhabi",,,,"24.446623, 54.600281",Veterinary clinic,24.44648828,54.60058072
Al Rawafid Vet Est,Abu Dhabi,"Abu Dhabi - Al Ain District, Veterinary Services",,,,,,24.21515799,55.77778189
Al Salah Veterinary Store,Abu Dhabi,Central District - Hai Al Hisn - Abu Dhabi - United Arab Emirates,,http://www.linkedin.com/company/alsalahveterinarystore,http://www.alsalahvetstore.com,971 4 285 0088,,24.21694736,55.77611472
Al Sondus Vet Clinic,Abu Dhabi,6Q8G+8MW - Central District - Hai Al Hisn - Abu Dhabi - United Arab Emirates,,,https://www.yello.ae/company/154261/alsondusvetclinc,971 3 765 6631,,24.21604587,55.77679753
Al Wathba Veterinary Hospital,Abu Dhabi,22 Al 'Asjad St - Al Wathba - Al Wathbah South - Abu Dhabi,,,,971 2 583 2300,,24.27537058,54.65359157
Al Wathba Veterinary Medicines,Abu Dhabi,22 Al 'Asjad St - Al Wathba - Al Wathbah South - Abu Dhabi - United Arab Emirates,,,,,,24.2754097,54.65321606
Aleef Vet Clinic,Abu Dhabi,"Al Khaleej Al Arabi Street, Al Bateen, Abu Dhabi",,,,25572736,,24.44499108,54.37731991
Almarai Alkhadraa Veterinary Clinic,Abu Dhabi,Al Ain Building 33 Al Hayer Sweihan,,,,"03 7321511, 056 1911666",,24.1602879,55.8072725
Alyahar Veterinary Clinics ,Abu Dhabi,Al Ain,,,,"03 7840673, 052 9789789",,24.2248697,55.7452211
American Veterinary Clinic,Abu Dhabi,315 Al Falah St - Al Khalidiyah - W9 - Abu Dhabi - United Arab Emirates,,,https://americanvet.ae/,9.71E+10,,24.4649583,54.3518221
Animalia Veterinary Clinic,Abu Dhabi,"Marasy 4,Al Bateen, Abu Dhabi",,,https://www.animalia.ae/,971 544 424 987,hello@animalia.ae,24.45129738,54.33317875
Australian Veterinary Clinic,Abu Dhabi,Khalifa City A,,,http://australianvet.com/,971 2 556 5676,,24.40826763,54.55162422
Australian Veterinary Clinic ,Abu Dhabi,Oceanscape Tower Damac - Al Reem Island - Abu Dhabi - United Arab Emirates,,,,971 2 556 5676,,24.50707038,54.40622435
Bainouna Veterinary Center,Abu Dhabi,"Abu Dhabi - Airport Area, Near Airport",,,,971 2 443 5777,,24.46093534,54.40768586
Best Pet Vet,Abu Dhabi,"Al Rahah, Abu Dhabi",,,www.bestpet.vet,585117557,,24.455334,54.615355
British Veterinary Centre,Abu Dhabi,Al Fursan St - Khalifa City - Sector 33 - Abu Dhabi - United Arab Emirates,Dr. Martin Wyness,,http://www.britvet.com/,971 2 5504111,info_kc@britvet.ae,24.39740179,54.55501231
British Veterinary Centre ,Abu Dhabi,Villa 16 Mohammed Bin Mejren Al Marar St - ŸÇÿ±Ÿäÿ© ÿßŸÑŸÖÿßÿ±ŸäŸÜÿß - Al Marina - Abu Dhabi - United Arab Emirates,Dr. Jonathan Hale Clinical Partner,,https://britvet.com/,02 6650085,,24.47245678,54.3188249
The City Vet Clinic,Abu Dhabi,"Villa 143 and 145, 12th Street - A - opposite Al Forsan Village - Khalifa City - Abu Dhabi - United Arab Emirates",,,,,,24.40713012,54.55244359
Canadian Veterinary Clinic,Abu Dhabi,Al Khaleej Al Arabi St - Al Khalidiyah - W9 01 - Abu Dhabi - United Arab Emirates,,,https://canadianvc.com/,971 2 677 7631,canadianvet@live.com,24.46781993,54.35296988
Canadian Veterinary Clinic,Abu Dhabi,G96H+3C4 - Al Meena St - Al Zahiyah - E14 - Abu Dhabi - United Arab Emirates,,,https://www.canadianvc.com/,97126777631,,24.51062382,54.37974905
Capital Vet Clinic,Abu Dhabi,20 Alramlah street - Al Nahyan - E19 02 - Abu Dhabi,Dr. Curtis Sanders founder and Dr. Matthew Scroggs,,capitalvet.ae,971 543 80 8022,contact@capitalvet.ae,24.472169,54.37892379
Cloud 9 Pet Hotel & Care,Abu Dhabi,"Villa 72, 23rd Street A - Abu Dhabi - United Arab Emirates",Identifies as women-owned,,https://instagram.com/cloud9pethotel?igshid=MzRlODBiNWFlZA==,9.71E+10,Veterinary clinics,24.4221032,54.5573448
Dr. Vet Animal Hospital,Abu Dhabi,Khalifa City,,,https://drvet.ae/,971 2 4126555,info@drvet.ae,24.4201314,54.5749535
Elite Veterinary Clinic,Abu Dhabi,"Shop F37/38 Bawadi market, Al Ain- UAE",Khaled Alnuaimi,,http://www.elitefarm.ae,971 3 733 3473,reception@elitevet.ae,24.2248697,55.7452211
Fit Life Veterinary Clinic,Abu Dhabi,Arabian Gulf St - Al Manhal - W19 01 - Abu Dhabi,,,,971 2 585 7633,,24.44705598,54.36540251
German Veterinary Clinic,Abu Dhabi,Khalifa City - Sector 32 - Abu Dhabi - United Arab Emirates,Dr. Katrin Jahn,,https://www.germanvet.ae/,971 2 556 2024,info@germanvet.ae,24.41800531,54.56383236
Gulf Vetcare LLC,Abu Dhabi,Abu Dhabi - Al Ain Truck Rd - Al Wathba - Al Dhafrah East - Abu Dhabi - United Arab Emirates,Masroor Hussain,,https://gulfvetcare.com/,971 25826072,info@gulfvetcare.com,24.24575906,54.62661573
Hilal Veterinary Clinic,Abu Dhabi,الخالدية - أبوظبي - buildingentrancebacksidesheratonhotelKhalidiya - Abu Dhabi,,,,,,24.47585957,54.34980828
Hogwarts Veterinary Clinic,Abu Dhabi,1 At Tilfahah St - Al Zahiyah - E16 02 - Abu Dhabi - United Arab Emirates,,,,557504215,,24.49099047,54.38396637
Hope Veterinary Clinic,Abu Dhabi,Marina office park - villa 32 Marina ring road - Al Kasir - Al Marina - Abu Dhabi - United Arab Emirates,Dr. Hafsa Lotfi,,https://hopeveterinaryclinic.ae/,971 50 544 5926,info@hopeveterinaryclinic.ae,24.47515421,54.31830907
Life Line Veterinary Clinic,Abu Dhabi,Birds market-shop - 10th - 13 ʻAttab St - Al Zahiyah - Al Mina - Abu Dhabi,,,https://www.lifelinevetclinic.com/,,,24.51004645,54.37876588
Najm Suhail Veterinary Clinic,Abu Dhabi,Abu Dhabi Al Markaziya,,,,,,24.2736853,54.6552459
National Veterinary Clinic,Abu Dhabi,Area Opposite Mary Mother of Jesus Mosque and St. Andrew Church - Sinan Bin Abi Sinan St - Al Mushrif - W24 02 - Abu Dhabi,Dr. Faisal Shaheen,,https://www.newvetclinic.com/,,,24.4499602,54.3867383
Najm Suhail Veterinary Clinic,Abu Dhabi,"Al Wathbah South, Abu Dhabi",,,,503278296,,24.242878,54.7014763
New Veterinary Clinic,Abu Dhabi,"Abu Dhabi - Mezzanine Floor, Al Rafideen Laundry Building, next to National Hospital",Dr. Faisal Shaheen,,http://www.newvetclinic.com/,970 2 6725 955,Drfaisal@newvetclinic.com,24.47612255,54.37801651
Pet Street Veterinary Clinic,Abu Dhabi,Central Market - Shop No F106 - behind Bawadi Mall - Al Noud - Wadi Al Ain 1 - Abu Dhabi - United Arab Emirates,,,,,,24.16211772,55.81033981
Pets Republic Veterinary Clinic,Abu Dhabi,"Abu Dhabi - 28 Saeed Bin Saif Al Falahi Street, Al Nahyan, E25",,,,,,24.46681463,54.38638104
Paws and Paws,Abu Dhabi,"Al Raha, RBW2 Al Faridah building, shop A2 - Abu Dhabi - United Arab Emirates",,,https://www.pawsandclawsclinics.com/,971 50 340 8149,,24.4578625,54.6163601
Pawspact Veterinarian Clinic,Abu Dhabi,22 At Tashreef St - Al Hisn - W7 01 - Abu Dhabi - United Arab Emirates,,,https://www.pawspactvet.com/,971 2 622 7260,contact@pawspactvet.com,24.47685565,54.35002294
Pearl Vet Medicine Est.,Dubai,Central Building - 15th St - Mirdif - Dubai - United Arab Emirates,,,,97146657783,,25.21749185,55.41864134
Pet Friends Group,Abu Dhabi,Delma Street,,,http://www.petfriendsgroup.net/,971 55 389 7593,,24.464446,54.3790606
Pet Pavilion,Abu Dhabi,ICAD I,Dr. Luis Mendoza,,https://www.petpavilion.ae/,971 2 559 0453,admin@petpavilion.ae,24.3307524,54.4914149
Pet Well Veterinary Clinic,Abu Dhabi,Al Dana Tower - 31st St - Al Sa`Adah - Zone 1 - Abu Dhabi - United Arab Emirates,,,http://petwell-clinics.com/,971 50 104 8443,,24.43034775,54.43779635
Pet n Vet Clinic,Abu Dhabi,"Al Ain Al Murabba Street, Building 156, Near Al Ain Hospital",,,https://www.petnvetclinic.com/,,,24.16358039,55.81105964
Pet Life Veterinary Clinic,Abu Dhabi,5R66+WCM animal food market سوق الاعلاف -خلف Pet life vet clinic - Al Noud - Wadi Al Ain 1 - Abu Dhabi - United Arab Emirates,,,,971559223733,,24.1627875,55.81131714
Pet Oasis,Abu Dhabi,"Abu Dhabi - Al Muroor, 66 Al Majarrah Street, Zone 1 Sector E-38",Dr. Elizabeth Thomas,https://www.linkedin.com/in/drelizabeththomas719924172/,https://petsoasisuae.com/,9.72E+10,info@petsoasisuae.com,24.44351007,54.4105787
Premier Veterinary Clinic,Abu Dhabi,Al Wathba,,,https://premierveterinary.ae/,971 2 446 3721,,24.2817033,54.6617001
Pure Life Vet Grooming & Cats Boarding,Abu Dhabi,Hazza ' Bin Zayed The First St - Al Nahyan - E19 02 - Abu Dhabi - United Arab Emirates,Souheil A,https://www.linkedin.com/in/souheilab3a04316a/,https://www.purelifevet.com/,971 4 272 3442,contact@purelifevet.com,24.47847422,54.38377819
Pure Life Veterinarian Treatment,Abu Dhabi,"Abu Dhabi Central Abu Dhabi, Medical District",Dr. Firas,,https://purelifevet.com/,,,24.47938753,54.38599341
RPC Vet Clinic,Abu Dhabi,"Abu Dhabi - Khalifa City, SE45 Sector",,,https://rpcvetclinic.com/,971 58 939 4078,,24.44477735,54.61382373
Royal Veterinary Centre,Abu Dhabi,"Al Ain Villa 23, Al Bateen District, Near Souq Extra",,https://ae.linkedin.com/company/royalveterinarycentrealain,https://www.facebook.com/RoyalVetAlAin/,971 3 768 0686,,24.28358451,55.59878118
Rukn Al Zajel Veterinary Medicines,Abu Dhabi,"Shop#14, Pets and Birds Market, Meena",,,http://ruknalzajel.com/,971 4 267 9383,,24.50991868,54.37914827
Soul Veterinary Clinic,Abu Dhabi,Al Ain Central Market Shops F37 and F38 - Al Noud - Wadi Al Ain 1 - Abu Dhabi - United Arab Emirates,,,,,,24.16405828,55.81100919
SHARQ vet clinic,Abu Dhabi,Al Noud - Wadi Al Ain 1 - Abu Dhabi - United Arab Emirates,,,,,,24.16183396,55.81031959
Jabal Aladham Vet. Clinic,Abu Dhabi,1 An Nama-a 5 St - Al Noud - Wadi Al Ain 1 - Abu Dhabi - United Arab Emirates,,,,,,24.16226804,55.80996833
Swiss Veterinary Clinic,Abu Dhabi,"Abu Dhabi Khalifa City, Swiss Standard Care",,,https://swissveterinaryclinic.com/,,,24.4661084,54.3461445
Saadiyat Veterinary,Abu Dhabi,"Abu Dhabi - 58 Al Nahhat Street, Al Shahama, New Shahamah",,,,971 52 105 5959,,24.52985643,54.69144344
Saqar Veterinary Clinic,Abu Dhabi,Abu Dhabi Baniyas,,,,971 2 583 3180,,24.3105082,54.6424379
Advance pet clinic,Abu Dhabi,"Plot no. 30, Road-4, Bida Bin Ammar - 'Asharij - Al Ain City - Abu Dhabi - United Arab Emirates",,,,971 2 622 3000,,24.22595134,55.65521727
The City Vet Clinic - Al Ain,Abu Dhabi,5R76+74 - Al Noud - Wadi Al Ain 1 - Abu Dhabi - United Arab Emirates,,,http://thecityvetclinic.com/,8003990,alwasl@thecityvetclinic.com,24.1635706,55.810373
Top Care Veterinary Clinic,Abu Dhabi,"Al Wahda Mall, Abu Dhabi",,,,,Veterinary clinics,24.4716637,54.3723735
Vet Zone Veterinary Clinic,Abu Dhabi,Al Jimi Avenue - Al Bateen - W10 - Abu Dhabi - United Arab Emirates,,,vetzoneclinic.com,02 546 6511,info@vetzoneclinic.com,24.47026739,54.34091063
Wellpet Veterinary Clinic,Abu Dhabi,Murror - Zone 1 - Abu Dhabi - United Arab Emirates,,,,"24.463000, 54.386000",Comprehensive range of services,24.46479946,54.38725508
Welfare Veterinary Clinic,Abu Dhabi,Muroor Rd - Al Nahyan - Zone 1 - Abu Dhabi - United Arab Emirates,,,https://wvetclinic.com/,971 2 622 5506,contact@wvetclinic.com,24.4643631,54.384506
Zoo Veterinary Center,Abu Dhabi,Emirates Park Zoo - St no 12 - Al Bahyah - Al Bahyah Farms 2 - Abu Dhabi,,,,,,24.4538352,54.3774014
Sweet Pets Veterinary Clinic,Abu Dhabi,5R65+QP7 - Unnamed Road - Al Noud - Wadi Al Ain 1 - Abu Dhabi - United Arab Emirates,,,,,,24.16201571,55.80933612
Sky Veterinary Clinic,Abu Dhabi,1 Al Nama Street 2 - Al Noud - Wadi Al Ain 1 - Abu Dhabi - United Arab Emirates,,,,971562162122,,24.16282228,55.81681091
Falcon Vet Clinic Alain,Abu Dhabi,7Q78+CC - Al Qattarah - Al Shuabah - Abu Dhabi - United Arab Emirates,,,,971559223733,,24.26403559,55.76581437
Pawsitive Vibes Veterinary Clinic,Abu Dhabi,F44 Backside of Bawadi Mall Al Ain - Al Noud - Wadi Al Ain 1 - Abu Dhabi - United Arab Emirates,,,,97137220421,,24.16392766,55.8101177
Care Veterinary Clinic,Abu Dhabi,"Shop No 137F, 138F, Al Khrair Area,Central Market - Abu Dhabi - United Arab Emirates",,,,,,24.16190625,55.80986597
Avian veterinary Clinic,Abu Dhabi,central market office number F-6 bawadi alain - Abu Dhabi - United Arab Emirates,,,,97137344877,,24.16367738,55.81110726
Orthopedic Veterinary Clinic,Dubai,Al Barsha South 3 - Dubai - United Arab Emirates,,,,971564011131,,25.06827543,55.25074399
Paw Prints Veterinary Clinic,Dubai,"Arjan, Nas 2 Building, Shop 1 - Dubai - United Arab Emirates",,,,971544337908,,25.06063147,55.23876816
Animalia Veterinary Clinic,Abu Dhabi,Beach Building No. 1484 - C 18 Al Raha Blvd - Al Rahah - Al Dana - Abu Dhabi - United Arab Emirates,,,http://www.animalia.ae/,971544424987,,24.44712829,54.57671231